NORAD_CAT_ID,OBJECT_NAME,OBJECT_TYPE,EPOCH,MEAN_MOTION,ECCENTRICITY,INCLINATION,RA_OF_ASC_NODE,ARG_OF_PERICENTER,MEAN_ANOMALY,BSTAR,MEAN_MOTION_DOT,MEAN_MOTION_DDOT,TLE_LINE0,TLE_LINE1,TLE_LINE2,SEMIMAJOR_AXIS,PERIOD,APOGEE,PERIGEE,DECAYED
53388.0,STARLINK-4522,PAYLOAD,2023-02-16 20:23:22,15.08812656,0.0001765,53.2141,97.8182,89.6103,270.5091,-0.001837,-0.00029384,0.0,0 STARLINK-4522,1 53388U 22097A   23047.84956907 -.00029384  00000-0 -18370-2 0  9990,2 53388  53.2141  97.8182 0001765  89.6103 270.5091 15.08812656 29418,6917.964,95.439,541.05,538.608,0.0
53388.0,STARLINK-4522,PAYLOAD,2023-02-17 09:06:28,15.0881312,0.0001382,53.2136,95.4414,85.6803,274.4347,0.0014753,0.00023252,0.0,0 STARLINK-4522,1 53388U 22097A   23048.37950158  .00023252  00000-0  14753-2 0  9998,2 53388  53.2136  95.4414 0001382  85.6803 274.4347 15.08813120 29494,6917.963,95.439,540.784,538.871,0.0
53388.0,STARLINK-4522,PAYLOAD,2023-02-17 20:14:11,15.08827337,0.0001384,53.2131,93.3602,86.4179,273.6971,0.0015321,0.00024171,0.0,0 STARLINK-4522,1 53388U 22097A   23048.84318977  .00024171  00000-0  15321-2 0  9990,2 53388  53.2131  93.3602 0001384  86.4179 273.6971 15.08827337 30392,6917.919,95.438,540.742,538.827,0.0
53388.0,STARLINK-4522,PAYLOAD,2023-02-18 08:57:16,15.08840687,0.0001659,53.2129,90.9802,86.2471,273.8711,0.0012064,0.00018964,0.0,0 STARLINK-4522,1 53388U 22097A   23049.37311306  .00018964  00000-0  12064-2 0  9992,2 53388  53.2129  90.9802 0001659  86.2471 273.8711 15.08840687 29645,6917.878,95.438,540.891,538.596,0.0
53388.0,STARLINK-4522,PAYLOAD,2023-02-18 12:08:03,15.08848219,0.0001568,53.213,90.3866,85.0724,275.0447,0.0014751,0.00023272,0.0,0 STARLINK-4522,1 53388U 22097A   23049.50559303  .00023272  00000-0  14751-2 0  9991,2 53388  53.2130  90.3866 0001568  85.0724 275.0447 15.08848219 30492,6917.855,95.437,540.805,538.636,0.0
53388.0,STARLINK-4522,PAYLOAD,2023-02-19 13:34:12,15.08874162,0.0001644,53.2142,85.6259,93.12,266.9981,0.00096439,0.00015108,0.0,0 STARLINK-4522,1 53388U 22097A   23050.56541925  .00015108  00000-0  96439-3 0  9993,2 53388  53.2142  85.6259 0001644  93.1200 266.9981 15.08874162 29825,6917.776,95.435,540.778,538.504,0.0
53388.0,STARLINK-4522,PAYLOAD,2023-02-20 08:38:50,15.08850295,0.0001567,53.2143,82.057,104.583,255.5336,0.0003405,5.137e-05,0.0,0 STARLINK-4522,1 53388U 22097A   23051.36030103  .00005137  00000-0  34050-3 0  9995,2 53388  53.2143  82.0570 0001567 104.5830 255.5336 15.08850295 29945,6917.849,95.437,540.798,538.63,0.0
53388.0,STARLINK-4522,PAYLOAD,2023-02-20 11:49:36,15.08850022,0.0001564,53.2142,81.4622,97.7895,262.3275,0.00047163,7.228e-05,0.0,0 STARLINK-4522,1 53388U 22097A   23051.49278136  .00007228  00000-0  47163-3 0  9991,2 53388  53.2142  81.4622 0001564  97.7895 262.3275 15.08850022 30797,6917.85,95.437,540.797,538.633,0.0
53388.0,STARLINK-4522,PAYLOAD,2023-02-21 05:18:51,15.08839236,0.0001408,53.215,78.1929,99.5395,260.5757,0.00055563,8.566e-05,0.0,0 STARLINK-4522,1 53388U 22097A   23052.22142635  .00008566  00000-0  55563-3 0  9996,2 53388  53.2150  78.1929 0001408  99.5395 260.5757 15.08839236 30071,6917.883,95.438,540.722,538.774,0.0
53388.0,STARLINK-4522,PAYLOAD,2023-02-21 13:15:46,15.08853802,0.0001339,53.2144,76.7056,90.8956,269.2189,0.0014146,0.00022306,0.0,0 STARLINK-4522,1 53388U 22097A   23052.55262598  .00022306  00000-0  14146-2 0  9992,2 53388  53.2144  76.7056 0001339  90.8956 269.2189 15.08853802 30956,6917.838,95.437,540.63,538.777,0.0
53388.0,STARLINK-4522,PAYLOAD,2023-02-21 18:01:56,15.08838372,0.0002176,53.2147,75.8124,96.5985,263.5255,0.00060186,9.303e-05,0.0,0 STARLINK-4522,1 53388U 22097A   23052.75135068  .00009303  00000-0  60186-3 0  9993,2 53388  53.2147  75.8124 0002176  96.5985 263.5255 15.08838372 30989,6917.885,95.438,541.256,538.245,0.0
53388.0,STARLINK-4522,PAYLOAD,2023-02-22 01:58:52,15.08845204,0.0001313,53.2145,74.3262,98.2254,261.8887,0.00090058,0.00014076,0.0,0 STARLINK-4522,1 53388U 22097A   23053.08254655  .00014076  00000-0  90058-3 0  9998,2 53388  53.2145  74.3262 0001313  98.2254 261.8887 15.08845204 30203,6917.864,95.437,540.638,538.821,0.0
53388.0,STARLINK-4522,PAYLOAD,2023-02-22 13:06:33,15.08862737,0.0001467,53.2145,72.244,100.4954,259.6203,0.0012901,0.00020316,0.0,0 STARLINK-4522,1 53388U 22097A   23053.54622211  .00020316  00000-0  12901-2 0  9990,2 53388  53.2145  72.2440 0001467 100.4954 259.6203 15.08862737 31108,6917.811,95.436,540.691,538.661,0.0
53388.0,STARLINK-4522,PAYLOAD,2023-02-22 17:52:43,15.08833601,0.0001654,53.2148,71.3524,92.4108,267.7074,-5.9443e-05,-1.234e-05,0.0,0 STARLINK-4522,1 53388U 22097A   23053.74494820 -.00001234  00000-0 -59443-4 0  9999,2 53388  53.2148  71.3524 0001654  92.4108 267.7074 15.08833601 30308,6917.9,95.438,540.909,538.621,0.0
53388.0,STARLINK-4522,PAYLOAD,2023-02-23 11:21:58,15.08844195,0.0001257,53.2151,68.0812,107.8331,252.2799,0.00081845,0.00012763,0.0,0 STARLINK-4522,1 53388U 22097A   23054.47358895  .00012763  00000-0  81845-3 0  9998,2 53388  53.2151  68.0812 0001257 107.8331 252.2799 15.08844195 31240,6917.868,95.437,540.602,538.863,0.0
53388.0,STARLINK-4522,PAYLOAD,2023-02-23 17:43:30,15.08839781,0.0001235,53.2154,66.8918,93.1763,266.937,0.00074129,0.00011529,0.0,0 STARLINK-4522,1 53388U 22097A   23054.73855162  .00011529  00000-0  74129-3 0  9992,2 53388  53.2154  66.8918 0001235  93.1763 266.9370 15.08839781 31284,6917.881,95.438,540.6,538.892,0.0
53388.0,STARLINK-4522,PAYLOAD,2023-02-24 00:05:03,15.08847395,0.0001206,53.2151,65.7023,94.3201,265.7929,0.0008687,0.00013567,0.0,0 STARLINK-4522,1 53388U 22097A   23055.00351086  .00013567  00000-0  86870-3 0  9999,2 53388  53.2151  65.7023 0001206  94.3201 265.7929 15.08847395 30493,6917.858,95.437,540.557,538.888,0.0
53388.0,STARLINK-4522,PAYLOAD,2023-02-24 12:48:07,15.08862409,0.0001292,53.2154,63.3225,92.9735,267.1405,0.00082685,0.00012904,0.0,0 STARLINK-4522,1 53388U 22097A   23055.53342458  .00012904  00000-0  82685-3 0  9994,2 53388  53.2154  63.3225 0001292  92.9735 267.1405 15.08862409 31405,6917.812,95.436,540.571,538.783,0.0
53388.0,STARLINK-4522,PAYLOAD,2023-02-24 23:55:50,15.08831769,0.0001012,53.2156,61.2414,102.5638,257.5467,-0.00026953,-4.574e-05,0.0,0 STARLINK-4522,1 53388U 22097A   23055.99710963 -.00004574  00000-0 -26953-3 0  9996,2 53388  53.2156  61.2414 0001012 102.5638 257.5467 15.08831769 30645,6917.906,95.438,540.471,539.07,0.0
53388.0,STARLINK-4522,PAYLOAD,2023-02-25 12:38:55,15.08840213,0.0001528,53.2141,58.8616,111.8181,248.2974,0.00042357,6.46e-05,0.0,0 STARLINK-4522,1 53388U 22097A   23056.52703129  .00006460  00000-0  42357-3 0  9992,2 53388  53.2141  58.8616 0001528 111.8181 248.2974 15.08840213 31558,6917.88,95.438,540.802,538.688,0.0
53388.0,STARLINK-4522,PAYLOAD,2023-02-25 17:25:05,15.08838026,0.0001158,53.2138,57.9698,109.5048,250.6069,0.00063721,9.867e-05,0.0,0 STARLINK-4522,1 53388U 22097A   23056.72575300  .00009867  00000-0  63721-3 0  9994,2 53388  53.2138  57.9698 0001158 109.5048 250.6069 15.08838026 30751,6917.886,95.438,540.553,538.95,0.0
53388.0,STARLINK-4522,PAYLOAD,2023-02-26 10:54:18,15.08869,0.0001234,53.2141,54.6992,102.6946,257.4184,0.0012233,0.0001925,0.0,0 STARLINK-4522,1 53388U 22097A   23057.45438610  .00019250  00000-0  12233-2 0  9995,2 53388  53.2141  54.6992 0001234 102.6946 257.4184 15.08869000 30863,6917.792,95.436,540.51,538.803,0.0
53388.0,STARLINK-4522,PAYLOAD,2023-02-26 17:15:52,15.08841082,0.0001753,53.2163,53.5094,89.6492,270.4701,0.000274,4.075e-05,0.0,0 STARLINK-4522,1 53388U 22097A   23057.71935366  .00004075  00000-0  27400-3 0  9996,2 53388  53.2163  53.5094 0001753  89.6492 270.4701 15.08841082 30909,6917.877,95.437,540.955,538.529,0.0
53388.0,STARLINK-4522,PAYLOAD,2023-02-27 09:09:43,15.08856475,0.0001393,53.2139,50.535,94.3718,265.7433,0.00098789,0.00015476,0.0,0 STARLINK-4522,1 53388U 22097A   23058.38175033  .00015476  00000-0  98789-3 0  9992,2 53388  53.2139  50.5350 0001393  94.3718 265.7433 15.08856475 31832,6917.83,95.437,540.659,538.731,0.0
53388.0,STARLINK-4522,PAYLOAD,2023-02-28 05:49:45,15.08818685,0.0001258,53.2161,46.6707,83.7051,276.4084,0.0010271,0.00016087,0.0,0 STARLINK-4522,1 53388U 22097A   23059.24288348  .00016087  00000-0  10271-2 0  9990,2 53388  53.2161  46.6707 0001258  83.7051 276.4084 15.08818685 31136,6917.946,95.439,540.681,538.94,0.0
53388.0,STARLINK-4522,PAYLOAD,2023-02-28 10:35:54,15.08825582,0.0001435,53.2162,45.7786,80.1313,279.9841,0.0015697,0.00024772,0.0,0 STARLINK-4522,1 53388U 22097A   23059.44160614  .00024772  00000-0  15697-2 0  9994,2 53388  53.2162  45.7786 0001435  80.1313 279.9841 15.08825582 31990,6917.924,95.438,540.782,538.797,0.0
53388.0,STARLINK-4522,PAYLOAD,2023-03-01 05:40:33,15.08840234,0.0001506,53.2161,42.2111,88.6714,271.4451,0.0014567,0.00022972,0.0,0 STARLINK-4522,1 53388U 22097A   23060.23649477  .00022972  00000-0  14567-2 0  9997,2 53388  53.2161  42.2111 0001506  88.6714 271.4451 15.08840234 31287,6917.88,95.438,540.787,538.703,0.0
53388.0,STARLINK-4522,PAYLOAD,2023-03-01 21:34:23,15.08867618,0.0001293,53.2151,39.2368,86.5625,273.5515,0.0011732,0.00018447,0.0,0 STARLINK-4522,1 53388U 22097A   23060.89888652  .00018447  00000-0  11732-2 0  9992,2 53388  53.2151  39.2368 0001293  86.5625 273.5515 15.08867618 32210,6917.796,95.436,540.555,538.767,0.0
53388.0,STARLINK-4522,PAYLOAD,2023-03-02 08:42:04,15.08888857,0.0001284,53.2156,37.1555,85.8894,274.2245,0.0014203,0.00022419,0.0,0 STARLINK-4522,1 53388U 22097A   23061.36255439  .00022419  00000-0  14203-2 0  9996,2 53388  53.2156  37.1555 0001284  85.8894 274.2245 15.08888857 32283,6917.731,95.434,540.484,538.708,0.0
53388.0,STARLINK-4522,PAYLOAD,2023-03-03 10:08:13,15.08885845,0.0001328,53.2155,32.3972,101.4176,258.6965,0.002021,0.00032063,0.0,0 STARLINK-4522,1 53388U 22097A   23062.42238376  .00032063  00000-0  20210-2 0  9996,2 53388  53.2155  32.3972 0001328 101.4176 258.6965 15.08885845 31614,6917.74,95.435,540.524,538.687,0.0
